NORAD_CAT_ID,OBJECT_NAME,OBJECT_TYPE,EPOCH,MEAN_MOTION,ECCENTRICITY,INCLINATION,RA_OF_ASC_NODE,ARG_OF_PERICENTER,MEAN_ANOMALY,BSTAR,MEAN_MOTION_DOT,MEAN_MOTION_DDOT,TLE_LINE0,TLE_LINE1,TLE_LINE2,SEMIMAJOR_AXIS,PERIOD,APOGEE,PERIGEE,DECAYED
52136.0,STARLINK-3720,PAYLOAD,2022-05-24 04:00:00,15.69210103,0.000131,53.2178,177.6139,18.6683,72.4957,-0.0066345,-0.00722681,0.0,0 STARLINK-3720,1 52136U 22029BA  22144.16667824 -.00722681  00000-0 -66345-2 0  9999,2 52136  53.2178 177.6139 0001310  18.6683  72.4957 15.69210103 11639,6739.295,91.766,362.042,360.277,0.0
52136.0,STARLINK-3720,PAYLOAD,2022-05-24 11:15:25,15.69328624,0.000105,53.2127,176.1265,296.0519,64.0391,-0.0030525,-0.0034965,0.0,0 STARLINK-3720,1 52136U 22029BA  22144.46903973 -.00349650  00000-0 -30525-2 0  9992,2 52136  53.2127 176.1265 0001050 296.0519  64.0391 15.69328624 11680,6738.955,91.759,361.528,360.11300000000006,0.0
52136.0,STARLINK-3720,PAYLOAD,2022-05-24 22:00:00,15.68057564,0.0001102,53.2173,173.9296,58.3064,310.5879,-0.0068748,-0.00714619,0.0,0 STARLINK-3720,1 52136U 22029BA  22144.91667824 -.00714619  00000-0 -68748-2 0  9993,2 52136  53.2173 173.9296 0001102  58.3064 310.5879 15.68057564 11751,6742.597,91.833,365.205,363.719,0.0
52136.0,STARLINK-3720,PAYLOAD,2022-05-25 14:00:01,15.67038826,0.0001186,53.2172,170.6624,72.4994,100.658,-0.0071793,-0.00715663,0.0,0 STARLINK-3720,1 52136U 22029BA  22145.58334491 -.00715663  00000-0 -71793-2 0  9992,2 52136  53.2172 170.6624 0001186  72.4994 100.6580 15.67038826  1306,6745.518,91.893,368.184,366.583,0.0
52136.0,STARLINK-3720,PAYLOAD,2022-05-25 20:00:01,15.66655765,0.0001301,53.2176,169.43599999999995,54.124,90.0023,-0.0072816,-0.00714723,0.0,0 STARLINK-3720,1 52136U 22029BA  22145.83334491 -.00714723  00000-0 -72816-2 0  9993,2 52136  53.2176 169.4360 0001301  54.1240  90.0023 15.66655765 11900,6746.618,91.916,369.361,367.605,0.0
52136.0,STARLINK-3720,PAYLOAD,2022-05-25 22:00:00,15.66527803,0.0001235,53.2175,169.0275,63.0598,191.3127,-0.0073098999999999,-0.0071384,0.0,0 STARLINK-3720,1 52136U 22029BA  22145.91667824 -.00713840  00000-0 -73099-2 0  9994,2 52136  53.2175 169.0275 0001235  63.0598 191.3127 15.66527803  1305,6746.985,91.923,369.684,368.017,0.0
52136.0,STARLINK-3720,PAYLOAD,2022-05-26 12:14:04,15.66435582,0.0001648,53.2121,166.1173,22.05,338.0588,-0.0034863,-0.00354505,0.0,0 STARLINK-3720,1 52136U 22029BA  22146.50977154 -.00354505  00000-0 -34863-2 0  9995,2 52136  53.2121 166.1173 0001648  22.0500 338.0588 15.66435582 12010,6747.25,91.928,370.227,368.003,0.0
52136.0,STARLINK-3720,PAYLOAD,2022-05-26 20:00:01,15.65126079,0.0001161,53.2176,164.5441,52.2307,332.3184,-0.0077512,-0.00715127,0.0,0 STARLINK-3720,1 52136U 22029BA  22146.83334491 -.00715127  00000-0 -77512-2 0  9991,2 52136  53.2176 164.5441 0001161  52.2307 332.3184 15.65126079 12050,6751.013000000001,92.005,373.662,372.094,0.0
52136.0,STARLINK-3720,PAYLOAD,2022-05-26 22:00:00,15.64998922,0.0001345,53.2173,164.1367,52.0637,82.2718,-0.0077967,-0.00715656,0.0,0 STARLINK-3720,1 52136U 22029BA  22146.91667824 -.00715656  00000-0 -77967-2 0  9990,2 52136  53.2173 164.1367 0001345  52.0637  82.2718 15.64998922  1301,6751.379,92.013,374.152,372.336,0.0
52136.0,STARLINK-3720,PAYLOAD,2022-05-27 14:00:01,15.63980544,0.0001147,53.2172,160.8841,71.1515,220.0937,-0.0081412,-0.00717298,0.0,0 STARLINK-3720,1 52136U 22029BA  22147.58334491 -.00717298  00000-0 -81412-2 0  9999,2 52136  53.2172 160.8841 0001147  71.1515 220.0937 15.63980544  1302,6754.309,92.073,376.949,375.4,0.0
52136.0,STARLINK-3720,PAYLOAD,2022-05-27 22:00:01,15.63467912,0.0001119,53.2173,159.2569,57.4121,311.4373,-0.008268,-0.00714078,0.0,0 STARLINK-3720,1 52136U 22029BA  22147.91668981 -.00714078  00000-0 -82680-2 0  9991,2 52136  53.2173 159.2569 0001119  57.4121 311.4373 15.63467912 12222,6755.786,92.103,378.407,376.895,0.0
52136.0,STARLINK-3720,PAYLOAD,2022-05-28 04:06:01,15.63901624,0.0001158,53.2119,158.0063,344.4455,15.6526,-0.0035193,-0.00324518,0.0,0 STARLINK-3720,1 52136U 22029BA  22148.17085229 -.00324518  00000-0 -35193-2 0  9991,2 52136  53.2119 158.0063 0001158 344.4455  15.6526 15.63901624 12260,6754.5369999999975,92.077,377.184,375.619,0.0
52136.0,STARLINK-3720,PAYLOAD,2022-05-28 14:00:01,15.62450516,0.0001221,53.2173,156.0118,65.9555,96.0616,-0.008653,-0.00717639,0.0,0 STARLINK-3720,1 52136U 22029BA  22148.58334491 -.00717639  00000-0 -86530-2 0  9995,2 52136  53.2173 156.0118 0001221  65.9555  96.0616 15.62450516 12335,6758.718000000003,92.163,381.408,379.758,0.0
52136.0,STARLINK-3720,PAYLOAD,2022-05-28 22:00:00,15.61938842,0.0001291,53.2174,154.3882,63.2626,174.4543,-0.0087882999999999,-0.00714669,0.0,0 STARLINK-3720,1 52136U 22029BA  22148.91667824 -.00714669  00000-0 -87883-2 0  9993,2 52136  53.2174 154.3882 0001291  63.2626 174.4543 15.61938842  1309,6760.194,92.193,382.932,381.186,0.0
52136.0,STARLINK-3720,PAYLOAD,2022-05-29 04:39:56,15.6235376,0.000102,53.2118,153.0243,8.5689,351.5343,-0.0038449,-0.00333214,0.0,0 STARLINK-3720,1 52136U 22029BA  22149.19440945 -.00333214  00000-0 -38449-2 0  9994,2 52136  53.2118 153.0243 0001020   8.5689 351.5343 15.62353760 12427,6758.996999999999,92.169,381.551,380.173,0.0
52136.0,STARLINK-3720,PAYLOAD,2022-05-29 13:53:01,15.61765723,4.66e-05,53.2117,151.157,38.1457,321.9592,-0.0041,-0.00346646,0.0,0 STARLINK-3720,1 52136U 22029BA  22149.57849448 -.00346646  00000-0 -41000-2 0  9997,2 52136  53.2117 151.1570 0000466  38.1457 321.9592 15.61765723 12492,6760.694,92.203,382.874,382.24300000000005,0.0
52136.0,STARLINK-3720,PAYLOAD,2022-05-29 14:00:01,15.60919892,0.0001118,53.2172,151.1506,60.212,327.0614,-0.009153,-0.00715279,0.0,0 STARLINK-3720,1 52136U 22029BA  22149.58334491 -.00715279  00000-0 -91530-2 0  9990,2 52136  53.2172 151.1506 0001118  60.2120 327.0614 15.60919892 12488,6763.136,92.253,385.757,384.245,0.0
52136.0,STARLINK-3720,PAYLOAD,2022-05-29 22:00:00,15.6040947,0.0001293,53.2173,149.5309,54.1308,47.004,-0.0093436,-0.00715874,0.0,0 STARLINK-3720,1 52136U 22029BA  22149.91667824 -.00715874  00000-0 -93436-2 0  9994,2 52136  53.2173 149.5309 0001293  54.1308  47.0040 15.60409470  1302,6764.61,92.283,387.35,385.601,0.0
52136.0,STARLINK-3720,PAYLOAD,2022-05-30 03:43:10,15.61038123,0.000143,53.2121,148.361,62.8694,297.2467,-0.0035609,-0.00294672,0.0,0 STARLINK-3720,1 52136U 22029BA  22150.15498195 -.00294672  00000-0 -35609-2 0  9991,2 52136  53.2121 148.3610 0001430  62.8694 297.2467 15.61038123 12571,6762.794,92.246,385.626,383.692,0.0
52136.0,STARLINK-3720,PAYLOAD,2022-05-30 12:56:52,15.60322853,0.000231,53.2116,146.4982,73.7711,286.3557,-0.0045025,-0.0035954,0.0,0 STARLINK-3720,1 52136U 22029BA  22150.53949919 -.00359540  00000-0 -45025-2 0  9997,2 52136  53.2116 146.4982 0002310  73.7711 286.3557 15.60322853 12636,6764.861,92.289,388.288,385.163,0.0
52136.0,STARLINK-3720,PAYLOAD,2022-05-30 14:00:01,15.59390962,0.0001236,53.2171,146.3003,71.9533,175.0614,-0.0097444,-0.00717721,0.0,0 STARLINK-3720,1 52136U 22029BA  22150.58334491 -.00717721  00000-0 -97444-2 0  9996,2 52136  53.2171 146.3003 0001236  71.9533 175.0614 15.59390962  1302,6767.556,92.344,390.257,388.584,0.0
52136.0,STARLINK-3720,PAYLOAD,2022-05-30 20:00:01,15.59005495,0.0001311,53.2173,145.0881,62.2639,148.8261,-0.0097997,-0.00711779,0.0,0 STARLINK-3720,1 52136U 22029BA  22150.83334491 -.00711779  00000-0 -97997-2 0  9994,2 52136  53.2173 145.0881 0001311  62.2639 148.8261 15.59005495 12681,6768.670999999999,92.367,391.423,389.649,0.0
52136.0,STARLINK-3720,PAYLOAD,2022-05-30 22:00:00,15.58877731,0.000117,53.2173,144.6844,65.2238,253.8145,-0.0098534,-0.00712137,0.0,0 STARLINK-3720,1 52136U 22029BA  22150.91667824 -.00712137  00000-0 -98534-2 0  9999,2 52136  53.2173 144.6844 0001170  65.2238 253.8145 15.58877731  1300,6769.041,92.374,391.698,390.114,0.0
52136.0,STARLINK-3720,PAYLOAD,2022-05-31 02:47:28,15.59782227,0.0001905,53.2117,143.7034,130.9234,229.1945,-0.0034571,-0.00273359,0.0,0 STARLINK-3720,1 52136U 22029BA  22151.11630769 -.00273359  00000-0 -34571-2 0  9999,2 52136  53.2117 143.7034 0001905 130.9234 229.1945 15.59782227 12729,6766.424,92.321,389.578,387.0,0.0
52136.0,STARLINK-3720,PAYLOAD,2022-05-31 05:52:17,15.59390023,0.0001908,53.2121,143.0858,63.1283,296.9926,-0.0042676,-0.00330019,0.0,0 STARLINK-3720,1 52136U 22029BA  22151.24464363 -.00330019  00000-0 -42676-2 0  9990,2 52136  53.2121 143.0858 0001908  63.1283 296.9926 15.59390023 12758,6767.558000000001,92.344,390.715,388.132,0.0
52136.0,STARLINK-3720,PAYLOAD,2022-05-31 14:00:01,15.57859642,0.0001189,53.2172,141.4612,63.2997,37.9416,-0.010277,-0.00714373,0.0,0 STARLINK-3720,1 52136U 22029BA  22151.58334491 -.00714373  00000-0 -10277-1 0  9995,2 52136  53.2172 141.4612 0001189  63.2997  37.9416 15.57859642 12794,6771.99,92.435,394.66,393.05,0.0
52136.0,STARLINK-3720,PAYLOAD,2022-05-31 22:00:00,15.57350219,0.0001359,53.2174,139.8493,59.9382,111.4868,-0.010493,-0.00715428,0.0,0 STARLINK-3720,1 52136U 22029BA  22151.91667824 -.00715428  00000-0 -10493-1 0  9993,2 52136  53.2174 139.8493 0001359  59.9382 111.4868 15.57350219  1303,6773.465999999999,92.465,396.252,394.411,0.0
52136.0,STARLINK-3720,PAYLOAD,2022-06-01 11:08:16,15.57988586,8.909999999999997e-05,53.213,137.1953,341.1802,18.9178,-0.002777,-0.00206895,0.0,0 STARLINK-3720,1 52136U 22029BA  22152.46407987 -.00206895  00000-0 -27770-2 0  9996,2 52136  53.2130 137.1953 0000891 341.1802  18.9178 15.57988586 12930,6771.616,92.427,394.084,392.878,0.0
52136.0,STARLINK-3720,PAYLOAD,2022-06-01 20:00:01,15.55945484,0.000124,53.2172,135.4267,68.5608,202.709,-0.010992,-0.00711355,0.0,0 STARLINK-3720,1 52136U 22029BA  22152.83334491 -.00711355  00000-0 -10992-1 0  9995,2 52136  53.2172 135.4267 0001240  68.5608 202.7090 15.55945484 12998,6777.543000000002,92.548,400.24800000000016,398.567,0.0
